<?xml version="1.0" encoding="UTF-8"?>
<osm version="0.6" generator="Overpass API 0.7.62.11 87bfad18">
<note>The data included in this document is from www.openstreetmap.org. The data is made available under ODbL.</note>
<meta osm_base="2026-10-02T03:34:57Z" areas="2026-09-30T19:06:41Z"/>

<action type="modify">
<old>
  <node id="2056443609" version="1" timestamp="2012-12-08T18:18:32Z" changeset="14203631" uid="997255" user="NonnEmiliaService"/>
</old>
<new>
  <node id="2056443609" lat="44.7443026" lon="10.6812669" version="2" timestamp="2026-10-01T11:23:34Z" changeset="189817846" uid="821025" user="PaoloRE1981"/>
</new>
</action>
<action type="modify">
<old>
  <node id="2056443737" version="1" timestamp="2012-12-08T18:18:36Z" changeset="14203631" uid="997255" user="NonnEmiliaService"/>
</old>
<new>
  <node id="2056443737" lat="44.7447899" lon="10.6815688" version="2" timestamp="2026-10-01T11:23:34Z" changeset="189817846" uid="821025" user="PaoloRE1981"/>
</new>
</action>
<action type="modify">
<old>
  <node id="2434100413" lat="44.6856309" lon="10.6165140" version="4" timestamp="2024-04-12T17:58:33Z" changeset="149922795" uid="8305310" user="Martinligabue">
    <tag k="highway" v="crossing"/>
    <tag k="crossing:island" v="yes"/>
  </node>
</old>
<new>
  <node id="2434100413" lat="44.6856309" lon="10.6165140" version="5" timestamp="2026-10-01T19:36:26Z" changeset="189844685" uid="4455138" user="trasmutatore">
    <tag k="crossing:island" v="yes"/>
    <tag k="crossing:signals" v="no"/>
    <tag k="highway" v="crossing"/>
  </node>
</new>
</action>
<action type="delete">
<old>
  <node id="12407598287" lat="44.7443026" lon="10.6812669" version="1" timestamp="2024-12-09T17:13:08Z" changeset="160100299" uid="9927765" user="albertotinterri"/>
</old>
<new>
  <node id="12407598287" visible="false" version="2" timestamp="2026-10-01T11:23:34Z" changeset="189817846" uid="821025" user="PaoloRE1981"/>
</new>
</action>
<action type="modify">
<old>
  <way id="1341339325" version="3" timestamp="2025-01-13T18:18:06Z" changeset="161320286" uid="821025" user="PaoloRE1981">
    <bounds minlat="44.7351358" minlon="10.6690930" maxlat="44.7459281" maxlon="10.6822103"/>
    <nd ref="12407598284" lat="44.7459281" lon="10.6822103"/>
    <nd ref="12407598285" lat="44.7458067" lon="10.6821844"/>
    <nd ref="12407598286" lat="44.7450753" lon="10.6817456"/>
    <nd ref="12407598287" lat="44.7443026" lon="10.6812669"/>
    <nd ref="12407598288" lat="44.7441609" lon="10.6811726"/>
    <nd ref="12407598289" lat="44.7437488" lon="10.6808063"/>
    <nd ref="12407598290" lat="44.7427881" lon="10.6799288"/>
    <nd ref="12498514526" lat="44.7425791" lon="10.6797041"/>
    <nd ref="12407598291" lat="44.7425592" lon="10.6796206"/>
    <nd ref="12498514529" lat="44.7425677" lon="10.6796001"/>
    <nd ref="12407598292" lat="44.7425356" lon="10.6795801"/>
    <nd ref="12498514528" lat="44.7425204" lon="10.6795717"/>
    <nd ref="12498514527" lat="44.7424483" lon="10.6795191"/>
    <nd ref="12498514530" lat="44.7424590" lon="10.6794140"/>
    <nd ref="12407598293" lat="44.7424068" lon="10.6793665"/>
    <nd ref="12407598294" lat="44.7409737" lon="10.6784173"/>
    <nd ref="12407598295" lat="44.7393456" lon="10.6773362"/>
    <nd ref="12407598296" lat="44.7378351" lon="10.6763413"/>
    <nd ref="12407598297" lat="44.7370445" lon="10.6758345"/>
    <nd ref="12407598298" lat="44.7369953" lon="10.6757902"/>
    <nd ref="12407598299" lat="44.7369784" lon="10.6757343"/>
    <nd ref="12498514531" lat="44.7369749" lon="10.6756759"/>
    <nd ref="12498514532" lat="44.7380084" lon="10.6723932"/>
    <nd ref="12407598300" lat="44.7380251" lon="10.6723352"/>
    <nd ref="12498514533" lat="44.7380320" lon="10.6722492"/>
    <nd ref="12498514534" lat="44.7380279" lon="10.6721765"/>
    <nd ref="12498514535" lat="44.7380164" lon="10.6721221"/>
    <nd ref="12498514536" lat="44.7379975" lon="10.6720824"/>
    <nd ref="12498514537" lat="44.7379719" lon="10.6720528"/>
    <nd ref="12407613701" lat="44.7367821" lon="10.6713122"/>
    <nd ref="12498514538" lat="44.7367382" lon="10.6714437"/>
    <nd ref="2714839144" lat="44.7367276" lon="10.6714371"/>
    <nd ref="12407613702" lat="44.7361991" lon="10.6711313"/>
    <nd ref="12407613703" lat="44.7352373" lon="10.6705618"/>
    <nd ref="12498725840" lat="44.7351934" lon="10.6705155"/>
    <nd ref="12498725839" lat="44.7351599" lon="10.6704639"/>
    <nd ref="12407613704" lat="44.7351444" lon="10.6704115"/>
    <nd ref="12498725837" lat="44.7351358" lon="10.6703457"/>
    <nd ref="12498725838" lat="44.7351358" lon="10.6702880"/>
    <nd ref="12407613705" lat="44.7351463" lon="10.6702222"/>
    <nd ref="5638485889" lat="44.7355516" lon="10.6690930"/>
    <tag k="highway" v="path"/>
  </way>
</old>
<new>
  <way id="1341339325" version="4" timestamp="2026-10-01T11:23:34Z" changeset="189817846" uid="821025" user="PaoloRE1981">
    <bounds minlat="44.7351358" minlon="10.6690930" maxlat="44.7459281" maxlon="10.6822103"/>
    <nd ref="12407598284" lat="44.7459281" lon="10.6822103"/>
    <nd ref="12407598285" lat="44.7458067" lon="10.6821844"/>
    <nd ref="12407598286" lat="44.7450753" lon="10.6817456"/>
    <nd ref="2056443737" lat="44.7447899" lon="10.6815688"/>
    <nd ref="2056443609" lat="44.7443026" lon="10.6812669"/>
    <nd ref="12407598288" lat="44.7441609" lon="10.6811726"/>
    <nd ref="12407598289" lat="44.7437488" lon="10.6808063"/>
    <nd ref="12407598290" lat="44.7427881" lon="10.6799288"/>
    <nd ref="12498514526" lat="44.7425791" lon="10.6797041"/>
    <nd ref="12407598291" lat="44.7425592" lon="10.6796206"/>
    <nd ref="12498514529" lat="44.7425677" lon="10.6796001"/>
    <nd ref="12407598292" lat="44.7425356" lon="10.6795801"/>
    <nd ref="12498514528" lat="44.7425204" lon="10.6795717"/>
    <nd ref="12498514527" lat="44.7424483" lon="10.6795191"/>
    <nd ref="12498514530" lat="44.7424590" lon="10.6794140"/>
    <nd ref="12407598293" lat="44.7424068" lon="10.6793665"/>
    <nd ref="12407598294" lat="44.7409737" lon="10.6784173"/>
    <nd ref="12407598295" lat="44.7393456" lon="10.6773362"/>
    <nd ref="12407598296" lat="44.7378351" lon="10.6763413"/>
    <nd ref="12407598297" lat="44.7370445" lon="10.6758345"/>
    <nd ref="12407598298" lat="44.7369953" lon="10.6757902"/>
    <nd ref="12407598299" lat="44.7369784" lon="10.6757343"/>
    <nd ref="12498514531" lat="44.7369749" lon="10.6756759"/>
    <nd ref="12498514532" lat="44.7380084" lon="10.6723932"/>
    <nd ref="12407598300" lat="44.7380251" lon="10.6723352"/>
    <nd ref="12498514533" lat="44.7380320" lon="10.6722492"/>
    <nd ref="12498514534" lat="44.7380279" lon="10.6721765"/>
    <nd ref="12498514535" lat="44.7380164" lon="10.6721221"/>
    <nd ref="12498514536" lat="44.7379975" lon="10.6720824"/>
    <nd ref="12498514537" lat="44.7379719" lon="10.6720528"/>
    <nd ref="12407613701" lat="44.7367821" lon="10.6713122"/>
    <nd ref="12498514538" lat="44.7367382" lon="10.6714437"/>
    <nd ref="2714839144" lat="44.7367276" lon="10.6714371"/>
    <nd ref="12407613702" lat="44.7361991" lon="10.6711313"/>
    <nd ref="12407613703" lat="44.7352373" lon="10.6705618"/>
    <nd ref="12498725840" lat="44.7351934" lon="10.6705155"/>
    <nd ref="12498725839" lat="44.7351599" lon="10.6704639"/>
    <nd ref="12407613704" lat="44.7351444" lon="10.6704115"/>
    <nd ref="12498725837" lat="44.7351358" lon="10.6703457"/>
    <nd ref="12498725838" lat="44.7351358" lon="10.6702880"/>
    <nd ref="12407613705" lat="44.7351463" lon="10.6702222"/>
    <nd ref="5638485889" lat="44.7355516" lon="10.6690930"/>
    <tag k="highway" v="path"/>
  </way>
</new>
</action>
<action type="modify">
<old>
  <relation id="18392154" version="7" timestamp="2025-10-02T21:31:59Z" changeset="172766613" uid="3215770" user="Andrea Del Sarto">
    <bounds minlat="44.7351358" minlon="10.6690930" maxlat="44.7652474" maxlon="10.7103683"/>
    <member type="way" ref="1159440114" role="">
      <nd lat="44.7403311" lon="10.6718033"/>
      <nd lat="44.7403913" lon="10.6718285"/>
      <nd lat="44.7405433" lon="10.6718737"/>
      <nd lat="44.7405885" lon="10.6719167"/>
    </member>
    <member type="way" ref="775683610" role="">
      <nd lat="44.7405800" lon="10.6719596"/>
      <nd lat="44.7405885" lon="10.6719167"/>
    </member>
    <member type="way" ref="775683611" role="">
      <nd lat="44.7405800" lon="10.6719596"/>
      <nd lat="44.7409352" lon="10.6720709"/>
      <nd lat="44.7414552" lon="10.6722338"/>
      <nd lat="44.7421272" lon="10.6725277"/>
      <nd lat="44.7426071" lon="10.6727304"/>
      <nd lat="44.7431466" lon="10.6729107"/>
      <nd lat="44.7438324" lon="10.6730115"/>
      <nd lat="44.7445282" lon="10.6730415"/>
      <nd lat="44.7456249" lon="10.6734745"/>
    </member>
    <member type="way" ref="95517895" role="">
      <nd lat="44.7456249" lon="10.6734745"/>
      <nd lat="44.7458314" lon="10.6734602"/>
      <nd lat="44.7460226" lon="10.6734950"/>
      <nd lat="44.7461510" lon="10.6735492"/>
      <nd lat="44.7463303" lon="10.6735812"/>
    </member>
    <member type="way" ref="589064338" role="">
      <nd lat="44.7463863" lon="10.6736020"/>
      <nd lat="44.7463303" lon="10.6735812"/>
    </member>
    <member type="way" ref="589064337" role="">
      <nd lat="44.7464640" lon="10.6736152"/>
      <nd lat="44.7463863" lon="10.6736020"/>
    </member>
    <member type="way" ref="183705008" role="">
      <nd lat="44.7528369" lon="10.6768444"/>
      <nd lat="44.7525070" lon="10.6766738"/>
      <nd lat="44.7519181" lon="10.6762969"/>
      <nd lat="44.7514627" lon="10.6759841"/>
      <nd lat="44.7512015" lon="10.6757985"/>
      <nd lat="44.7503291" lon="10.6750898"/>
      <nd lat="44.7501736" lon="10.6748840"/>
      <nd lat="44.7500424" lon="10.6747250"/>
      <nd lat="44.7499381" lon="10.6746241"/>
      <nd lat="44.7498307" lon="10.6745298"/>
      <nd lat="44.7496703" lon="10.6743946"/>
      <nd lat="44.7466866" lon="10.6736475"/>
      <nd lat="44.7464640" lon="10.6736152"/>
    </member>
    <member type="way" ref="89347694" role="">
      <nd lat="44.7590571" lon="10.6787380"/>
      <nd lat="44.7566776" lon="10.6784480"/>
      <nd lat="44.7559685" lon="10.6784185"/>
      <nd lat="44.7551849" lon="10.6781015"/>
      <nd lat="44.7528369" lon="10.6768444"/>
    </member>
    <member type="way" ref="775683612" role="">
      <nd lat="44.7590571" lon="10.6787380"/>
      <nd lat="44.7595180" lon="10.6788262"/>
      <nd lat="44.7597488" lon="10.6788794"/>
      <nd lat="44.7598606" lon="10.6789051"/>
    </member>
    <member type="way" ref="589067728" role="">
      <nd lat="44.7598606" lon="10.6789051"/>
      <nd lat="44.7598836" lon="10.6788353"/>
      <nd lat="44.7600279" lon="10.6788739"/>
      <nd lat="44.7604248" lon="10.6789817"/>
      <nd lat="44.7608550" lon="10.6790630"/>
      <nd lat="44.7613112" lon="10.6791851"/>
      <nd lat="44.7615667" lon="10.6792439"/>
      <nd lat="44.7616705" lon="10.6792841"/>
      <nd lat="44.7617124" lon="10.6792975"/>
      <nd lat="44.7617609" lon="10.6792988"/>
      <nd lat="44.7620218" lon="10.6792492"/>
      <nd lat="44.7624237" lon="10.6791607"/>
      <nd lat="44.7626046" lon="10.6791142"/>
    </member>
    <member type="way" ref="1341337263" role="">
      <nd lat="44.7626123" lon="10.6791620"/>
      <nd lat="44.7626046" lon="10.6791142"/>
    </member>
    <member type="way" ref="1341337265" role="">
      <nd lat="44.7626123" lon="10.6791620"/>
      <nd lat="44.7627070" lon="10.6791397"/>
      <nd lat="44.7627955" lon="10.6791174"/>
    </member>
    <member type="way" ref="89347315" role="">
      <nd lat="44.7627955" lon="10.6791174"/>
      <nd lat="44.7627530" lon="10.6796666"/>
    </member>
    <member type="way" ref="380642410" role="">
      <nd lat="44.7627530" lon="10.6796666"/>
      <nd lat="44.7630097" lon="10.6811933"/>
      <nd lat="44.7630964" lon="10.6817907"/>
      <nd lat="44.7631980" lon="10.6823711"/>
      <nd lat="44.7632059" lon="10.6825639"/>
      <nd lat="44.7632074" lon="10.6826003"/>
    </member>
    <member type="way" ref="622361333" role="">
      <nd lat="44.7632074" lon="10.6826003"/>
      <nd lat="44.7632355" lon="10.6830121"/>
    </member>
    <member type="way" ref="588444225" role="">
      <nd lat="44.7632355" lon="10.6830121"/>
      <nd lat="44.7635069" lon="10.6846732"/>
      <nd lat="44.7643537" lon="10.6898577"/>
    </member>
    <member type="way" ref="1341337266" role="">
      <nd lat="44.7643537" lon="10.6898577"/>
      <nd lat="44.7643887" lon="10.6900685"/>
      <nd lat="44.7649810" lon="10.6952056"/>
      <nd lat="44.7652474" lon="10.6977410"/>
    </member>
    <member type="way" ref="653699700" role="">
      <nd lat="44.7633685" lon="10.6983078"/>
      <nd lat="44.7646741" lon="10.6991584"/>
      <nd lat="44.7647408" lon="10.6991559"/>
      <nd lat="44.7647850" lon="10.6990620"/>
      <nd lat="44.7650057" lon="10.6979908"/>
      <nd lat="44.7650336" lon="10.6978904"/>
      <nd lat="44.7650962" lon="10.6978032"/>
      <nd lat="44.7651473" lon="10.6977547"/>
      <nd lat="44.7651898" lon="10.6977437"/>
      <nd lat="44.7652474" lon="10.6977410"/>
    </member>
    <member type="way" ref="653699703" role="">
      <nd lat="44.7633685" lon="10.6983078"/>
      <nd lat="44.7620702" lon="10.6974162"/>
    </member>
    <member type="way" ref="1341337267" role="">
      <nd lat="44.7607789" lon="10.7010407"/>
      <nd lat="44.7611831" lon="10.7001580"/>
      <nd lat="44.7620446" lon="10.6974879"/>
      <nd lat="44.7620702" lon="10.6974162"/>
    </member>
    <member type="way" ref="1341337268" role="">
      <nd lat="44.7601204" lon="10.7005645"/>
      <nd lat="44.7607162" lon="10.7009975"/>
      <nd lat="44.7607789" lon="10.7010407"/>
    </member>
    <member type="way" ref="531384723" role="">
      <nd lat="44.7590127" lon="10.7034649"/>
      <nd lat="44.7594793" lon="10.7024206"/>
      <nd lat="44.7599244" lon="10.7012227"/>
      <nd lat="44.7599354" lon="10.7011812"/>
      <nd lat="44.7601204" lon="10.7005645"/>
    </member>
    <member type="way" ref="531384722" role="">
      <nd lat="44.7589892" lon="10.7035207"/>
      <nd lat="44.7590127" lon="10.7034649"/>
    </member>
    <member type="way" ref="1341337269" role="">
      <nd lat="44.7589551" lon="10.7035993"/>
      <nd lat="44.7589892" lon="10.7035207"/>
    </member>
    <member type="way" ref="588744219" role="">
      <nd lat="44.7572625" lon="10.7077357"/>
      <nd lat="44.7573408" lon="10.7070952"/>
      <nd lat="44.7573410" lon="10.7070652"/>
      <nd lat="44.7573352" lon="10.7070401"/>
      <nd lat="44.7573260" lon="10.7070104"/>
      <nd lat="44.7573033" lon="10.7069808"/>
      <nd lat="44.7572910" lon="10.7069749"/>
      <nd lat="44.7571408" lon="10.7069248"/>
      <nd lat="44.7570750" lon="10.7068519"/>
      <nd lat="44.7570475" lon="10.7067923"/>
      <nd lat="44.7570421" lon="10.7067033"/>
      <nd lat="44.7570498" lon="10.7063762"/>
      <nd lat="44.7570789" lon="10.7061339"/>
      <nd lat="44.7571241" lon="10.7059100"/>
      <nd lat="44.7571687" lon="10.7057568"/>
      <nd lat="44.7572274" lon="10.7055824"/>
      <nd lat="44.7573537" lon="10.7052637"/>
      <nd lat="44.7575479" lon="10.7048375"/>
      <nd lat="44.7578247" lon="10.7044396"/>
      <nd lat="44.7578879" lon="10.7043014"/>
      <nd lat="44.7579416" lon="10.7041184"/>
      <nd lat="44.7580841" lon="10.7035141"/>
      <nd lat="44.7581257" lon="10.7034032"/>
      <nd lat="44.7581423" lon="10.7033662"/>
      <nd lat="44.7581836" lon="10.7033026"/>
      <nd lat="44.7582372" lon="10.7032672"/>
      <nd lat="44.7582945" lon="10.7032586"/>
      <nd lat="44.7583786" lon="10.7032779"/>
      <nd lat="44.7589551" lon="10.7035993"/>
    </member>
    <member type="way" ref="1341337271" role="">
      <nd lat="44.7572625" lon="10.7077357"/>
      <nd lat="44.7571514" lon="10.7076903"/>
      <nd lat="44.7568778" lon="10.7075174"/>
      <nd lat="44.7565760" lon="10.7073276"/>
      <nd lat="44.7565163" lon="10.7072843"/>
    </member>
    <member type="way" ref="1293034604" role="">
      <nd lat="44.7565163" lon="10.7072843"/>
      <nd lat="44.7552945" lon="10.7080194"/>
      <nd lat="44.7536307" lon="10.7093444"/>
      <nd lat="44.7535385" lon="10.7094409"/>
      <nd lat="44.7534376" lon="10.7095690"/>
      <nd lat="44.7532992" lon="10.7097656"/>
      <nd lat="44.7531821" lon="10.7099446"/>
      <nd lat="44.7531135" lon="10.7101289"/>
      <nd lat="44.7530864" lon="10.7102328"/>
      <nd lat="44.7530800" lon="10.7103179"/>
    </member>
    <member type="way" ref="1341339315" role="">
      <nd lat="44.7530800" lon="10.7103179"/>
      <nd lat="44.7530700" lon="10.7103362"/>
      <nd lat="44.7530581" lon="10.7103532"/>
      <nd lat="44.7530463" lon="10.7103648"/>
      <nd lat="44.7530310" lon="10.7103683"/>
      <nd lat="44.7529783" lon="10.7103520"/>
      <nd lat="44.7528671" lon="10.7103197"/>
      <nd lat="44.7526854" lon="10.7102664"/>
      <nd lat="44.7526137" lon="10.7102295"/>
      <nd lat="44.7525341" lon="10.7101671"/>
      <nd lat="44.7524554" lon="10.7100702"/>
      <nd lat="44.7523997" lon="10.7099801"/>
      <nd lat="44.7521696" lon="10.7095858"/>
      <nd lat="44.7518583" lon="10.7090475"/>
      <nd lat="44.7516472" lon="10.7086426"/>
      <nd lat="44.7516341" lon="10.7086246"/>
      <nd lat="44.7516190" lon="10.7086105"/>
      <nd lat="44.7515938" lon="10.7085928"/>
      <nd lat="44.7515706" lon="10.7085884"/>
      <nd lat="44.7515291" lon="10.7085940"/>
    </member>
    <member type="way" ref="1341339317" role="">
      <nd lat="44.7515291" lon="10.7085940"/>
      <nd lat="44.7515132" lon="10.7086713"/>
    </member>
    <member type="way" ref="1341339318" role="">
      <nd lat="44.7515132" lon="10.7086713"/>
      <nd lat="44.7513279" lon="10.7084961"/>
      <nd lat="44.7511263" lon="10.7082910"/>
      <nd lat="44.7509456" lon="10.7080969"/>
      <nd lat="44.7507896" lon="10.7079065"/>
      <nd lat="44.7507623" lon="10.7078113"/>
      <nd lat="44.7508052" lon="10.7075367"/>
      <nd lat="44.7508611" lon="10.7072474"/>
      <nd lat="44.7509326" lon="10.7068703"/>
      <nd lat="44.7510743" lon="10.7061672"/>
      <nd lat="44.7511042" lon="10.7060116"/>
      <nd lat="44.7512057" lon="10.7053781"/>
      <nd lat="44.7514397" lon="10.7041185"/>
      <nd lat="44.7515190" lon="10.7037121"/>
      <nd lat="44.7517764" lon="10.7022419"/>
      <nd lat="44.7518441" lon="10.7019087"/>
      <nd lat="44.7519599" lon="10.7013251"/>
    </member>
    <member type="way" ref="589665839" role="">
      <nd lat="44.7519599" lon="10.7013251"/>
      <nd lat="44.7520311" lon="10.7009162"/>
      <nd lat="44.7522083" lon="10.7000311"/>
      <nd lat="44.7524656" lon="10.6991511"/>
    </member>
    <member type="way" ref="1341339320" role="">
      <nd lat="44.7524656" lon="10.6991511"/>
      <nd lat="44.7526853" lon="10.6985198"/>
      <nd lat="44.7528946" lon="10.6978314"/>
      <nd lat="44.7529570" lon="10.6975476"/>
      <nd lat="44.7532040" lon="10.6963154"/>
    </member>
    <member type="way" ref="1341339321" role="">
      <nd lat="44.7532040" lon="10.6963154"/>
      <nd lat="44.7532314" lon="10.6961864"/>
    </member>
    <member type="way" ref="1341339319" role="">
      <nd lat="44.7532314" lon="10.6961864"/>
      <nd lat="44.7533770" lon="10.6955007"/>
      <nd lat="44.7535551" lon="10.6945944"/>
      <nd lat="44.7535980" lon="10.6941971"/>
      <nd lat="44.7536032" lon="10.6935545"/>
      <nd lat="44.7535993" lon="10.6928661"/>
      <nd lat="44.7535941" lon="10.6912605"/>
      <nd lat="44.7535733" lon="10.6900960"/>
      <nd lat="44.7535200" lon="10.6899825"/>
      <nd lat="44.7534433" lon="10.6899020"/>
      <nd lat="44.7533042" lon="10.6898800"/>
      <nd lat="44.7529310" lon="10.6898507"/>
      <nd lat="44.7528650" lon="10.6898430"/>
      <nd lat="44.7528192" lon="10.6898141"/>
      <nd lat="44.7527920" lon="10.6897773"/>
      <nd lat="44.7527748" lon="10.6897299"/>
      <nd lat="44.7527530" lon="10.6896138"/>
    </member>
    <member type="way" ref="312325293" role="">
      <nd lat="44.7527530" lon="10.6896138"/>
      <nd lat="44.7528500" lon="10.6895969"/>
    </member>
    <member type="way" ref="1341339322" role="">
      <nd lat="44.7528500" lon="10.6895969"/>
      <nd lat="44.7529098" lon="10.6895822"/>
    </member>
    <member type="way" ref="95517807" role="">
      <nd lat="44.7463424" lon="10.6808484"/>
      <nd lat="44.7464024" lon="10.6808578"/>
      <nd lat="44.7464929" lon="10.6808738"/>
      <nd lat="44.7465272" lon="10.6808846"/>
      <nd lat="44.7465548" lon="10.6808953"/>
      <nd lat="44.7466186" lon="10.6809288"/>
      <nd lat="44.7495529" lon="10.6831231"/>
      <nd lat="44.7530777" lon="10.6840502"/>
      <nd lat="44.7528415" lon="10.6871989"/>
      <nd lat="44.7529098" lon="10.6895822"/>
    </member>
    <member type="way" ref="1341339324" role="">
      <nd lat="44.7463424" lon="10.6808484"/>
      <nd lat="44.7463472" lon="10.6809489"/>
      <nd lat="44.7463424" lon="10.6810549"/>
      <nd lat="44.7463281" lon="10.6811568"/>
      <nd lat="44.7463081" lon="10.6812494"/>
      <nd lat="44.7462472" lon="10.6814237"/>
      <nd lat="44.7461071" lon="10.6817657"/>
      <nd lat="44.7459862" lon="10.6820594"/>
      <nd lat="44.7459281" lon="10.6822103"/>
    </member>
    <member type="way" ref="1341339325" role="">
      <nd lat="44.7459281" lon="10.6822103"/>
      <nd lat="44.7458067" lon="10.6821844"/>
      <nd lat="44.7450753" lon="10.6817456"/>
      <nd lat="44.7443026" lon="10.6812669"/>
      <nd lat="44.7441609" lon="10.6811726"/>
      <nd lat="44.7437488" lon="10.6808063"/>
      <nd lat="44.7427881" lon="10.6799288"/>
      <nd lat="44.7425791" lon="10.6797041"/>
      <nd lat="44.7425592" lon="10.6796206"/>
      <nd lat="44.7425677" lon="10.6796001"/>
      <nd lat="44.7425356" lon="10.6795801"/>
      <nd lat="44.7425204" lon="10.6795717"/>
      <nd lat="44.7424483" lon="10.6795191"/>
      <nd lat="44.7424590" lon="10.6794140"/>
      <nd lat="44.7424068" lon="10.6793665"/>
      <nd lat="44.7409737" lon="10.6784173"/>
      <nd lat="44.7393456" lon="10.6773362"/>
      <nd lat="44.7378351" lon="10.6763413"/>
      <nd lat="44.7370445" lon="10.6758345"/>
      <nd lat="44.7369953" lon="10.6757902"/>
      <nd lat="44.7369784" lon="10.6757343"/>
      <nd lat="44.7369749" lon="10.6756759"/>
      <nd lat="44.7380084" lon="10.6723932"/>
      <nd lat="44.7380251" lon="10.6723352"/>
      <nd lat="44.7380320" lon="10.6722492"/>
      <nd lat="44.7380279" lon="10.6721765"/>
      <nd lat="44.7380164" lon="10.6721221"/>
      <nd lat="44.7379975" lon="10.6720824"/>
      <nd lat="44.7379719" lon="10.6720528"/>
      <nd lat="44.7367821" lon="10.6713122"/>
      <nd lat="44.7367382" lon="10.6714437"/>
      <nd lat="44.7367276" lon="10.6714371"/>
      <nd lat="44.7361991" lon="10.6711313"/>
      <nd lat="44.7352373" lon="10.6705618"/>
      <nd lat="44.7351934" lon="10.6705155"/>
      <nd lat="44.7351599" lon="10.6704639"/>
      <nd lat="44.7351444" lon="10.6704115"/>
      <nd lat="44.7351358" lon="10.6703457"/>
      <nd lat="44.7351358" lon="10.6702880"/>
      <nd lat="44.7351463" lon="10.6702222"/>
      <nd lat="44.7355516" lon="10.6690930"/>
    </member>
    <member type="way" ref="590596924" role="">
      <nd lat="44.7355516" lon="10.6690930"/>
      <nd lat="44.7356784" lon="10.6691413"/>
    </member>
    <member type="way" ref="589063391" role="">
      <nd lat="44.7356784" lon="10.6691413"/>
      <nd lat="44.7357357" lon="10.6691780"/>
      <nd lat="44.7358027" lon="10.6692162"/>
      <nd lat="44.7358570" lon="10.6692471"/>
      <nd lat="44.7359292" lon="10.6692471"/>
      <nd lat="44.7362888" lon="10.6693264"/>
      <nd lat="44.7364852" lon="10.6693691"/>
      <nd lat="44.7366190" lon="10.6694316"/>
      <nd lat="44.7369765" lon="10.6696302"/>
      <nd lat="44.7371143" lon="10.6697156"/>
      <nd lat="44.7375662" lon="10.6699811"/>
      <nd lat="44.7381323" lon="10.6703186"/>
      <nd lat="44.7382368" lon="10.6703934"/>
      <nd lat="44.7385498" lon="10.6706040"/>
      <nd lat="44.7387029" lon="10.6707245"/>
      <nd lat="44.7388282" lon="10.6708066"/>
      <nd lat="44.7391747" lon="10.6710427"/>
      <nd lat="44.7392151" lon="10.6710705"/>
      <nd lat="44.7396182" lon="10.6713322"/>
      <nd lat="44.7399073" lon="10.6715206"/>
      <nd lat="44.7400267" lon="10.6716073"/>
      <nd lat="44.7402348" lon="10.6717604"/>
      <nd lat="44.7403311" lon="10.6718033"/>
    </member>
    <tag k="cai_scale" v="T"/>
    <tag k="distance" v="12"/>
    <tag k="duration" v="4:00"/>
    <tag k="from" v="Pratofontana"/>
    <tag k="name" v="Anello Canale Ronchi e Rifugio Sgabo"/>
    <tag k="network" v="lwn"/>
    <tag k="operator" v="Club Alpino Italiano - Sezione Reggio Emilia"/>
    <tag k="osmc:symbol" v="red:red:white_stripe:646U:black"/>
    <tag k="ref" v="646U"/>
    <tag k="ref:REI" v="HREN646U"/>
    <tag k="roundtrip" v="yes"/>
    <tag k="route" v="hiking"/>
    <tag k="source" v="survey:CAI"/>
    <tag k="source:ref" v="9224008"/>
    <tag k="symbol" v="646U on white red flag"/>
    <tag k="symbol:it" v="646U su bandierina bianca e rossa"/>
    <tag k="to" v="Pratofontana"/>
    <tag k="type" v="route"/>
    <tag k="via" v="Penizzo;Rifugio Sgabo;Bagnolo in Piano"/>
    <tag k="website" v="https://www.comune.re.it/argomenti/citta-collaborativa/i-progetti/reggio-emilia-citta-dei-sentieri/i-sentieri/via-matildica-del-volto-santo-e-le-diramazioni-per-il-rifugio-sgabo-e-san-michele-in-bosco"/>
  </relation>
</old>
<new>
  <relation id="18392154" version="7" timestamp="2025-10-02T21:31:59Z" changeset="172766613" uid="3215770" user="Andrea Del Sarto">
    <bounds minlat="44.7351358" minlon="10.6690930" maxlat="44.7652474" maxlon="10.7103683"/>
    <member type="way" ref="1159440114" role="">
      <nd lat="44.7403311" lon="10.6718033"/>
      <nd lat="44.7403913" lon="10.6718285"/>
      <nd lat="44.7405433" lon="10.6718737"/>
      <nd lat="44.7405885" lon="10.6719167"/>
    </member>
    <member type="way" ref="775683610" role="">
      <nd lat="44.7405800" lon="10.6719596"/>
      <nd lat="44.7405885" lon="10.6719167"/>
    </member>
    <member type="way" ref="775683611" role="">
      <nd lat="44.7405800" lon="10.6719596"/>
      <nd lat="44.7409352" lon="10.6720709"/>
      <nd lat="44.7414552" lon="10.6722338"/>
      <nd lat="44.7421272" lon="10.6725277"/>
      <nd lat="44.7426071" lon="10.6727304"/>
      <nd lat="44.7431466" lon="10.6729107"/>
      <nd lat="44.7438324" lon="10.6730115"/>
      <nd lat="44.7445282" lon="10.6730415"/>
      <nd lat="44.7456249" lon="10.6734745"/>
    </member>
    <member type="way" ref="95517895" role="">
      <nd lat="44.7456249" lon="10.6734745"/>
      <nd lat="44.7458314" lon="10.6734602"/>
      <nd lat="44.7460226" lon="10.6734950"/>
      <nd lat="44.7461510" lon="10.6735492"/>
      <nd lat="44.7463303" lon="10.6735812"/>
    </member>
    <member type="way" ref="589064338" role="">
      <nd lat="44.7463863" lon="10.6736020"/>
      <nd lat="44.7463303" lon="10.6735812"/>
    </member>
    <member type="way" ref="589064337" role="">
      <nd lat="44.7464640" lon="10.6736152"/>
      <nd lat="44.7463863" lon="10.6736020"/>
    </member>
    <member type="way" ref="183705008" role="">
      <nd lat="44.7528369" lon="10.6768444"/>
      <nd lat="44.7525070" lon="10.6766738"/>
      <nd lat="44.7519181" lon="10.6762969"/>
      <nd lat="44.7514627" lon="10.6759841"/>
      <nd lat="44.7512015" lon="10.6757985"/>
      <nd lat="44.7503291" lon="10.6750898"/>
      <nd lat="44.7501736" lon="10.6748840"/>
      <nd lat="44.7500424" lon="10.6747250"/>
      <nd lat="44.7499381" lon="10.6746241"/>
      <nd lat="44.7498307" lon="10.6745298"/>
      <nd lat="44.7496703" lon="10.6743946"/>
      <nd lat="44.7466866" lon="10.6736475"/>
      <nd lat="44.7464640" lon="10.6736152"/>
    </member>
    <member type="way" ref="89347694" role="">
      <nd lat="44.7590571" lon="10.6787380"/>
      <nd lat="44.7566776" lon="10.6784480"/>
      <nd lat="44.7559685" lon="10.6784185"/>
      <nd lat="44.7551849" lon="10.6781015"/>
      <nd lat="44.7528369" lon="10.6768444"/>
    </member>
    <member type="way" ref="775683612" role="">
      <nd lat="44.7590571" lon="10.6787380"/>
      <nd lat="44.7595180" lon="10.6788262"/>
      <nd lat="44.7597488" lon="10.6788794"/>
      <nd lat="44.7598606" lon="10.6789051"/>
    </member>
    <member type="way" ref="589067728" role="">
      <nd lat="44.7598606" lon="10.6789051"/>
      <nd lat="44.7598836" lon="10.6788353"/>
      <nd lat="44.7600279" lon="10.6788739"/>
      <nd lat="44.7604248" lon="10.6789817"/>
      <nd lat="44.7608550" lon="10.6790630"/>
      <nd lat="44.7613112" lon="10.6791851"/>
      <nd lat="44.7615667" lon="10.6792439"/>
      <nd lat="44.7616705" lon="10.6792841"/>
      <nd lat="44.7617124" lon="10.6792975"/>
      <nd lat="44.7617609" lon="10.6792988"/>
      <nd lat="44.7620218" lon="10.6792492"/>
      <nd lat="44.7624237" lon="10.6791607"/>
      <nd lat="44.7626046" lon="10.6791142"/>
    </member>
    <member type="way" ref="1341337263" role="">
      <nd lat="44.7626123" lon="10.6791620"/>
      <nd lat="44.7626046" lon="10.6791142"/>
    </member>
    <member type="way" ref="1341337265" role="">
      <nd lat="44.7626123" lon="10.6791620"/>
      <nd lat="44.7627070" lon="10.6791397"/>
      <nd lat="44.7627955" lon="10.6791174"/>
    </member>
    <member type="way" ref="89347315" role="">
      <nd lat="44.7627955" lon="10.6791174"/>
      <nd lat="44.7627530" lon="10.6796666"/>
    </member>
    <member type="way" ref="380642410" role="">
      <nd lat="44.7627530" lon="10.6796666"/>
      <nd lat="44.7630097" lon="10.6811933"/>
      <nd lat="44.7630964" lon="10.6817907"/>
      <nd lat="44.7631980" lon="10.6823711"/>
      <nd lat="44.7632059" lon="10.6825639"/>
      <nd lat="44.7632074" lon="10.6826003"/>
    </member>
    <member type="way" ref="622361333" role="">
      <nd lat="44.7632074" lon="10.6826003"/>
      <nd lat="44.7632355" lon="10.6830121"/>
    </member>
    <member type="way" ref="588444225" role="">
      <nd lat="44.7632355" lon="10.6830121"/>
      <nd lat="44.7635069" lon="10.6846732"/>
      <nd lat="44.7643537" lon="10.6898577"/>
    </member>
    <member type="way" ref="1341337266" role="">
      <nd lat="44.7643537" lon="10.6898577"/>
      <nd lat="44.7643887" lon="10.6900685"/>
      <nd lat="44.7649810" lon="10.6952056"/>
      <nd lat="44.7652474" lon="10.6977410"/>
    </member>
    <member type="way" ref="653699700" role="">
      <nd lat="44.7633685" lon="10.6983078"/>
      <nd lat="44.7646741" lon="10.6991584"/>
      <nd lat="44.7647408" lon="10.6991559"/>
      <nd lat="44.7647850" lon="10.6990620"/>
      <nd lat="44.7650057" lon="10.6979908"/>
      <nd lat="44.7650336" lon="10.6978904"/>
      <nd lat="44.7650962" lon="10.6978032"/>
      <nd lat="44.7651473" lon="10.6977547"/>
      <nd lat="44.7651898" lon="10.6977437"/>
      <nd lat="44.7652474" lon="10.6977410"/>
    </member>
    <member type="way" ref="653699703" role="">
      <nd lat="44.7633685" lon="10.6983078"/>
      <nd lat="44.7620702" lon="10.6974162"/>
    </member>
    <member type="way" ref="1341337267" role="">
      <nd lat="44.7607789" lon="10.7010407"/>
      <nd lat="44.7611831" lon="10.7001580"/>
      <nd lat="44.7620446" lon="10.6974879"/>
      <nd lat="44.7620702" lon="10.6974162"/>
    </member>
    <member type="way" ref="1341337268" role="">
      <nd lat="44.7601204" lon="10.7005645"/>
      <nd lat="44.7607162" lon="10.7009975"/>
      <nd lat="44.7607789" lon="10.7010407"/>
    </member>
    <member type="way" ref="531384723" role="">
      <nd lat="44.7590127" lon="10.7034649"/>
      <nd lat="44.7594793" lon="10.7024206"/>
      <nd lat="44.7599244" lon="10.7012227"/>
      <nd lat="44.7599354" lon="10.7011812"/>
      <nd lat="44.7601204" lon="10.7005645"/>
    </member>
    <member type="way" ref="531384722" role="">
      <nd lat="44.7589892" lon="10.7035207"/>
      <nd lat="44.7590127" lon="10.7034649"/>
    </member>
    <member type="way" ref="1341337269" role="">
      <nd lat="44.7589551" lon="10.7035993"/>
      <nd lat="44.7589892" lon="10.7035207"/>
    </member>
    <member type="way" ref="588744219" role="">
      <nd lat="44.7572625" lon="10.7077357"/>
      <nd lat="44.7573408" lon="10.7070952"/>
      <nd lat="44.7573410" lon="10.7070652"/>
      <nd lat="44.7573352" lon="10.7070401"/>
      <nd lat="44.7573260" lon="10.7070104"/>
      <nd lat="44.7573033" lon="10.7069808"/>
      <nd lat="44.7572910" lon="10.7069749"/>
      <nd lat="44.7571408" lon="10.7069248"/>
      <nd lat="44.7570750" lon="10.7068519"/>
      <nd lat="44.7570475" lon="10.7067923"/>
      <nd lat="44.7570421" lon="10.7067033"/>
      <nd lat="44.7570498" lon="10.7063762"/>
      <nd lat="44.7570789" lon="10.7061339"/>
      <nd lat="44.7571241" lon="10.7059100"/>
      <nd lat="44.7571687" lon="10.7057568"/>
      <nd lat="44.7572274" lon="10.7055824"/>
      <nd lat="44.7573537" lon="10.7052637"/>
      <nd lat="44.7575479" lon="10.7048375"/>
      <nd lat="44.7578247" lon="10.7044396"/>
      <nd lat="44.7578879" lon="10.7043014"/>
      <nd lat="44.7579416" lon="10.7041184"/>
      <nd lat="44.7580841" lon="10.7035141"/>
      <nd lat="44.7581257" lon="10.7034032"/>
      <nd lat="44.7581423" lon="10.7033662"/>
      <nd lat="44.7581836" lon="10.7033026"/>
      <nd lat="44.7582372" lon="10.7032672"/>
      <nd lat="44.7582945" lon="10.7032586"/>
      <nd lat="44.7583786" lon="10.7032779"/>
      <nd lat="44.7589551" lon="10.7035993"/>
    </member>
    <member type="way" ref="1341337271" role="">
      <nd lat="44.7572625" lon="10.7077357"/>
      <nd lat="44.7571514" lon="10.7076903"/>
      <nd lat="44.7568778" lon="10.7075174"/>
      <nd lat="44.7565760" lon="10.7073276"/>
      <nd lat="44.7565163" lon="10.7072843"/>
    </member>
    <member type="way" ref="1293034604" role="">
      <nd lat="44.7565163" lon="10.7072843"/>
      <nd lat="44.7552945" lon="10.7080194"/>
      <nd lat="44.7536307" lon="10.7093444"/>
      <nd lat="44.7535385" lon="10.7094409"/>
      <nd lat="44.7534376" lon="10.7095690"/>
      <nd lat="44.7532992" lon="10.7097656"/>
      <nd lat="44.7531821" lon="10.7099446"/>
      <nd lat="44.7531135" lon="10.7101289"/>
      <nd lat="44.7530864" lon="10.7102328"/>
      <nd lat="44.7530800" lon="10.7103179"/>
    </member>
    <member type="way" ref="1341339315" role="">
      <nd lat="44.7530800" lon="10.7103179"/>
      <nd lat="44.7530700" lon="10.7103362"/>
      <nd lat="44.7530581" lon="10.7103532"/>
      <nd lat="44.7530463" lon="10.7103648"/>
      <nd lat="44.7530310" lon="10.7103683"/>
      <nd lat="44.7529783" lon="10.7103520"/>
      <nd lat="44.7528671" lon="10.7103197"/>
      <nd lat="44.7526854" lon="10.7102664"/>
      <nd lat="44.7526137" lon="10.7102295"/>
      <nd lat="44.7525341" lon="10.7101671"/>
      <nd lat="44.7524554" lon="10.7100702"/>
      <nd lat="44.7523997" lon="10.7099801"/>
      <nd lat="44.7521696" lon="10.7095858"/>
      <nd lat="44.7518583" lon="10.7090475"/>
      <nd lat="44.7516472" lon="10.7086426"/>
      <nd lat="44.7516341" lon="10.7086246"/>
      <nd lat="44.7516190" lon="10.7086105"/>
      <nd lat="44.7515938" lon="10.7085928"/>
      <nd lat="44.7515706" lon="10.7085884"/>
      <nd lat="44.7515291" lon="10.7085940"/>
    </member>
    <member type="way" ref="1341339317" role="">
      <nd lat="44.7515291" lon="10.7085940"/>
      <nd lat="44.7515132" lon="10.7086713"/>
    </member>
    <member type="way" ref="1341339318" role="">
      <nd lat="44.7515132" lon="10.7086713"/>
      <nd lat="44.7513279" lon="10.7084961"/>
      <nd lat="44.7511263" lon="10.7082910"/>
      <nd lat="44.7509456" lon="10.7080969"/>
      <nd lat="44.7507896" lon="10.7079065"/>
      <nd lat="44.7507623" lon="10.7078113"/>
      <nd lat="44.7508052" lon="10.7075367"/>
      <nd lat="44.7508611" lon="10.7072474"/>
      <nd lat="44.7509326" lon="10.7068703"/>
      <nd lat="44.7510743" lon="10.7061672"/>
      <nd lat="44.7511042" lon="10.7060116"/>
      <nd lat="44.7512057" lon="10.7053781"/>
      <nd lat="44.7514397" lon="10.7041185"/>
      <nd lat="44.7515190" lon="10.7037121"/>
      <nd lat="44.7517764" lon="10.7022419"/>
      <nd lat="44.7518441" lon="10.7019087"/>
      <nd lat="44.7519599" lon="10.7013251"/>
    </member>
    <member type="way" ref="589665839" role="">
      <nd lat="44.7519599" lon="10.7013251"/>
      <nd lat="44.7520311" lon="10.7009162"/>
      <nd lat="44.7522083" lon="10.7000311"/>
      <nd lat="44.7524656" lon="10.6991511"/>
    </member>
    <member type="way" ref="1341339320" role="">
      <nd lat="44.7524656" lon="10.6991511"/>
      <nd lat="44.7526853" lon="10.6985198"/>
      <nd lat="44.7528946" lon="10.6978314"/>
      <nd lat="44.7529570" lon="10.6975476"/>
      <nd lat="44.7532040" lon="10.6963154"/>
    </member>
    <member type="way" ref="1341339321" role="">
      <nd lat="44.7532040" lon="10.6963154"/>
      <nd lat="44.7532314" lon="10.6961864"/>
    </member>
    <member type="way" ref="1341339319" role="">
      <nd lat="44.7532314" lon="10.6961864"/>
      <nd lat="44.7533770" lon="10.6955007"/>
      <nd lat="44.7535551" lon="10.6945944"/>
      <nd lat="44.7535980" lon="10.6941971"/>
      <nd lat="44.7536032" lon="10.6935545"/>
      <nd lat="44.7535993" lon="10.6928661"/>
      <nd lat="44.7535941" lon="10.6912605"/>
      <nd lat="44.7535733" lon="10.6900960"/>
      <nd lat="44.7535200" lon="10.6899825"/>
      <nd lat="44.7534433" lon="10.6899020"/>
      <nd lat="44.7533042" lon="10.6898800"/>
      <nd lat="44.7529310" lon="10.6898507"/>
      <nd lat="44.7528650" lon="10.6898430"/>
      <nd lat="44.7528192" lon="10.6898141"/>
      <nd lat="44.7527920" lon="10.6897773"/>
      <nd lat="44.7527748" lon="10.6897299"/>
      <nd lat="44.7527530" lon="10.6896138"/>
    </member>
    <member type="way" ref="312325293" role="">
      <nd lat="44.7527530" lon="10.6896138"/>
      <nd lat="44.7528500" lon="10.6895969"/>
    </member>
    <member type="way" ref="1341339322" role="">
      <nd lat="44.7528500" lon="10.6895969"/>
      <nd lat="44.7529098" lon="10.6895822"/>
    </member>
    <member type="way" ref="95517807" role="">
      <nd lat="44.7463424" lon="10.6808484"/>
      <nd lat="44.7464024" lon="10.6808578"/>
      <nd lat="44.7464929" lon="10.6808738"/>
      <nd lat="44.7465272" lon="10.6808846"/>
      <nd lat="44.7465548" lon="10.6808953"/>
      <nd lat="44.7466186" lon="10.6809288"/>
      <nd lat="44.7495529" lon="10.6831231"/>
      <nd lat="44.7530777" lon="10.6840502"/>
      <nd lat="44.7528415" lon="10.6871989"/>
      <nd lat="44.7529098" lon="10.6895822"/>
    </member>
    <member type="way" ref="1341339324" role="">
      <nd lat="44.7463424" lon="10.6808484"/>
      <nd lat="44.7463472" lon="10.6809489"/>
      <nd lat="44.7463424" lon="10.6810549"/>
      <nd lat="44.7463281" lon="10.6811568"/>
      <nd lat="44.7463081" lon="10.6812494"/>
      <nd lat="44.7462472" lon="10.6814237"/>
      <nd lat="44.7461071" lon="10.6817657"/>
      <nd lat="44.7459862" lon="10.6820594"/>
      <nd lat="44.7459281" lon="10.6822103"/>
    </member>
    <member type="way" ref="1341339325" role="">
      <nd lat="44.7459281" lon="10.6822103"/>
      <nd lat="44.7458067" lon="10.6821844"/>
      <nd lat="44.7450753" lon="10.6817456"/>
      <nd lat="44.7447899" lon="10.6815688"/>
      <nd lat="44.7443026" lon="10.6812669"/>
      <nd lat="44.7441609" lon="10.6811726"/>
      <nd lat="44.7437488" lon="10.6808063"/>
      <nd lat="44.7427881" lon="10.6799288"/>
      <nd lat="44.7425791" lon="10.6797041"/>
      <nd lat="44.7425592" lon="10.6796206"/>
      <nd lat="44.7425677" lon="10.6796001"/>
      <nd lat="44.7425356" lon="10.6795801"/>
      <nd lat="44.7425204" lon="10.6795717"/>
      <nd lat="44.7424483" lon="10.6795191"/>
      <nd lat="44.7424590" lon="10.6794140"/>
      <nd lat="44.7424068" lon="10.6793665"/>
      <nd lat="44.7409737" lon="10.6784173"/>
      <nd lat="44.7393456" lon="10.6773362"/>
      <nd lat="44.7378351" lon="10.6763413"/>
      <nd lat="44.7370445" lon="10.6758345"/>
      <nd lat="44.7369953" lon="10.6757902"/>
      <nd lat="44.7369784" lon="10.6757343"/>
      <nd lat="44.7369749" lon="10.6756759"/>
      <nd lat="44.7380084" lon="10.6723932"/>
      <nd lat="44.7380251" lon="10.6723352"/>
      <nd lat="44.7380320" lon="10.6722492"/>
      <nd lat="44.7380279" lon="10.6721765"/>
      <nd lat="44.7380164" lon="10.6721221"/>
      <nd lat="44.7379975" lon="10.6720824"/>
      <nd lat="44.7379719" lon="10.6720528"/>
      <nd lat="44.7367821" lon="10.6713122"/>
      <nd lat="44.7367382" lon="10.6714437"/>
      <nd lat="44.7367276" lon="10.6714371"/>
      <nd lat="44.7361991" lon="10.6711313"/>
      <nd lat="44.7352373" lon="10.6705618"/>
      <nd lat="44.7351934" lon="10.6705155"/>
      <nd lat="44.7351599" lon="10.6704639"/>
      <nd lat="44.7351444" lon="10.6704115"/>
      <nd lat="44.7351358" lon="10.6703457"/>
      <nd lat="44.7351358" lon="10.6702880"/>
      <nd lat="44.7351463" lon="10.6702222"/>
      <nd lat="44.7355516" lon="10.6690930"/>
    </member>
    <member type="way" ref="590596924" role="">
      <nd lat="44.7355516" lon="10.6690930"/>
      <nd lat="44.7356784" lon="10.6691413"/>
    </member>
    <member type="way" ref="589063391" role="">
      <nd lat="44.7356784" lon="10.6691413"/>
      <nd lat="44.7357357" lon="10.6691780"/>
      <nd lat="44.7358027" lon="10.6692162"/>
      <nd lat="44.7358570" lon="10.6692471"/>
      <nd lat="44.7359292" lon="10.6692471"/>
      <nd lat="44.7362888" lon="10.6693264"/>
      <nd lat="44.7364852" lon="10.6693691"/>
      <nd lat="44.7366190" lon="10.6694316"/>
      <nd lat="44.7369765" lon="10.6696302"/>
      <nd lat="44.7371143" lon="10.6697156"/>
      <nd lat="44.7375662" lon="10.6699811"/>
      <nd lat="44.7381323" lon="10.6703186"/>
      <nd lat="44.7382368" lon="10.6703934"/>
      <nd lat="44.7385498" lon="10.6706040"/>
      <nd lat="44.7387029" lon="10.6707245"/>
      <nd lat="44.7388282" lon="10.6708066"/>
      <nd lat="44.7391747" lon="10.6710427"/>
      <nd lat="44.7392151" lon="10.6710705"/>
      <nd lat="44.7396182" lon="10.6713322"/>
      <nd lat="44.7399073" lon="10.6715206"/>
      <nd lat="44.7400267" lon="10.6716073"/>
      <nd lat="44.7402348" lon="10.6717604"/>
      <nd lat="44.7403311" lon="10.6718033"/>
    </member>
    <tag k="cai_scale" v="T"/>
    <tag k="distance" v="12"/>
    <tag k="duration" v="4:00"/>
    <tag k="from" v="Pratofontana"/>
    <tag k="name" v="Anello Canale Ronchi e Rifugio Sgabo"/>
    <tag k="network" v="lwn"/>
    <tag k="operator" v="Club Alpino Italiano - Sezione Reggio Emilia"/>
    <tag k="osmc:symbol" v="red:red:white_stripe:646U:black"/>
    <tag k="ref" v="646U"/>
    <tag k="ref:REI" v="HREN646U"/>
    <tag k="roundtrip" v="yes"/>
    <tag k="route" v="hiking"/>
    <tag k="source" v="survey:CAI"/>
    <tag k="source:ref" v="9224008"/>
    <tag k="symbol" v="646U on white red flag"/>
    <tag k="symbol:it" v="646U su bandierina bianca e rossa"/>
    <tag k="to" v="Pratofontana"/>
    <tag k="type" v="route"/>
    <tag k="via" v="Penizzo;Rifugio Sgabo;Bagnolo in Piano"/>
    <tag k="website" v="https://www.comune.re.it/argomenti/citta-collaborativa/i-progetti/reggio-emilia-citta-dei-sentieri/i-sentieri/via-matildica-del-volto-santo-e-le-diramazioni-per-il-rifugio-sgabo-e-san-michele-in-bosco"/>
  </relation>
</new>
</action>

</osm>
