<?xml version="1.0" encoding="UTF-8"?>
<osm version="0.6" generator="Overpass API 0.7.62.11 87bfad18">
<note>The data included in this document is from www.openstreetmap.org. The data is made available under ODbL.</note>
<meta osm_base="2026-10-08T03:54:34Z" areas="2026-10-07T10:19:21Z"/>

<action type="modify">
<old>
  <way id="526767971" version="6" timestamp="2020-06-04T06:59:22Z" changeset="86169728" uid="2976645" user="Jrachi">
    <bounds minlat="45.2337462" minlon="7.2927001" maxlat="45.2342914" maxlon="7.2933372"/>
    <nd ref="5121864095" lat="45.2342914" lon="7.2927001"/>
    <nd ref="6611735981" lat="45.2342751" lon="7.2928480"/>
    <nd ref="5121864097" lat="45.2342515" lon="7.2929510"/>
    <nd ref="5121864098" lat="45.2342183" lon="7.2929637"/>
    <nd ref="6227742419" lat="45.2341343" lon="7.2929693"/>
    <nd ref="5121864099" lat="45.2340901" lon="7.2930021"/>
    <nd ref="5121864100" lat="45.2340805" lon="7.2930251"/>
    <nd ref="5121864101" lat="45.2340797" lon="7.2930612"/>
    <nd ref="5121864102" lat="45.2340873" lon="7.2931464"/>
    <nd ref="5121864103" lat="45.2340727" lon="7.2931586"/>
    <nd ref="3806843337" lat="45.2340755" lon="7.2932134"/>
    <nd ref="6646011223" lat="45.2340696" lon="7.2932390"/>
    <nd ref="3806843338" lat="45.2339936" lon="7.2932998"/>
    <nd ref="3806843336" lat="45.2339304" lon="7.2933305"/>
    <nd ref="3806843333" lat="45.2338887" lon="7.2932623"/>
    <nd ref="3806843334" lat="45.2338231" lon="7.2932743"/>
    <nd ref="3806843342" lat="45.2337462" lon="7.2933372"/>
    <tag k="name" v="Via Paschietto"/>
    <tag k="highway" v="footway"/>
  </way>
</old>
<new>
  <way id="526767971" version="7" timestamp="2026-10-07T17:03:57Z" changeset="190159888" uid="6645382" user="canfe">
    <bounds minlat="45.2337462" minlon="7.2927001" maxlat="45.2342914" maxlon="7.2933372"/>
    <nd ref="5121864095" lat="45.2342914" lon="7.2927001"/>
    <nd ref="6611735981" lat="45.2342751" lon="7.2928480"/>
    <nd ref="5121864097" lat="45.2342515" lon="7.2929510"/>
    <nd ref="5121864098" lat="45.2342183" lon="7.2929637"/>
    <nd ref="6227742419" lat="45.2341343" lon="7.2929693"/>
    <nd ref="5121864099" lat="45.2340901" lon="7.2930021"/>
    <nd ref="5121864100" lat="45.2340805" lon="7.2930251"/>
    <nd ref="5121864101" lat="45.2340797" lon="7.2930612"/>
    <nd ref="5121864102" lat="45.2340873" lon="7.2931464"/>
    <nd ref="5121864103" lat="45.2340727" lon="7.2931586"/>
    <nd ref="3806843337" lat="45.2340755" lon="7.2932134"/>
    <nd ref="6646011223" lat="45.2340696" lon="7.2932390"/>
    <nd ref="3806843338" lat="45.2339936" lon="7.2932998"/>
    <nd ref="3806843336" lat="45.2339304" lon="7.2933305"/>
    <nd ref="3806843333" lat="45.2338887" lon="7.2932623"/>
    <nd ref="3806843334" lat="45.2338231" lon="7.2932743"/>
    <nd ref="3806843342" lat="45.2337462" lon="7.2933372"/>
    <tag k="highway" v="footway"/>
    <tag k="name" v="Via Ovarda"/>
  </way>
</new>
</action>

</osm>
